[{"OBJECT_NAME":"STARLINK-32702","OBJECT_ID":"2024-251A","EPOCH":"2026-03-09T23:35:51.139392","MEAN_MOTION":15.3022321,"ECCENTRICITY":0.00013632,"INCLINATION":53.1627,"RA_OF_ASC_NODE":331.0824,"ARG_OF_PERICENTER":65.2599,"MEAN_ANOMALY":294.8544,"EPHEMERIS_TYPE":0,"CLASSIFICATION_TYPE":"U","NORAD_CAT_ID":62432,"ELEMENT_SET_NO":999,"REV_AT_EPOCH":6803,"BSTAR":0.0011431202,"MEAN_MOTION_DOT":0.00033675,"MEAN_MOTION_DDOT":0},{"OBJECT_NAME":"OBJECT BD","OBJECT_ID":"2025-313BD","EPOCH":"2026-03-09T15:06:44.992224","MEAN_MOTION":15.3000236,"ECCENTRICITY":0.00072867,"INCLINATION":97.397,"RA_OF_ASC_NODE":145.285,"ARG_OF_PERICENTER":333.4514,"MEAN_ANOMALY":26.6352,"EPHEMERIS_TYPE":0,"CLASSIFICATION_TYPE":"U","NORAD_CAT_ID":67299,"ELEMENT_SET_NO":999,"REV_AT_EPOCH":1083,"BSTAR":0.0027633805,"MEAN_MOTION_DOT":0.0008101,"MEAN_MOTION_DDOT":0}]
